KUIPER-00080            
1 64827U 25151M   26063.12128718  .00002019  00000+0  29374-3 0  9997
2 64827  51.9016 325.1941 0000727  89.3802 270.7243 14.79937835 34482
KUIPER-00082            
1 64828U 25151N   26063.10096575  .00006914  00000+0  93468-3 0  9994
2 64828  51.9017 312.8148 0000724  90.5223 269.5823 14.79947532 34658
KUIPER-00083            
1 64829U 25151P   26063.02538737  .00006983  00000+0  94362-3 0  9997
2 64829  51.9022 320.6398 0000621  95.5998 264.5036 14.79951910 35724
KUIPER-00084            
1 64830U 25151Q   26063.14964292  .00000004  00000+0  29513-4 0  9996
2 64830  51.9035 330.0723 0000801 222.7778 137.3122 14.79907168 34411
KUIPER-00085            
1 64831U 25151R   26063.06725237  .00003828  00000+0  53072-3 0  9995
2 64831  51.9022 312.9899 0000822 114.7435 245.3613 14.79938387 34641
KUIPER-00086            
1 64832U 25151S   26062.71881248 -.00001826  00000+0 -21061-3 0  9993
2 64832  51.9044 324.5008 0000702  71.6219 288.4820 14.79931736 34453
KUIPER-00087            
1 64833U 25151T   26063.58335648 -.00206651  00000+0 -27622-1 0  9998
2 64833  51.8992 303.1623 0000839  79.1737 108.4062 14.80381627  5390
KUIPER-00089            
1 64834U 25151U   26063.06847269  .00006261  00000+0  85225-3 0  9997
2 64834  51.9004 310.4336 0000712  86.3822 273.7222 14.79795846 34681
KUIPER-00090            
1 64835U 25151V   26063.07803893  .00005212  00000+0  71212-3 0  9990
2 64835  51.9016 302.9416 0000907  99.6331 260.4734 14.79937751 34783
KUIPER-00091            
1 64836U 25151W   26063.47837601  .00006802  00000+0  92283-3 0  9996
2 64836  51.9011 306.1497 0001019  95.5860 264.5218 14.79819329 34772
KUIPER-00092            
1 64837U 25151X   26063.13204743  .00007214  00000+0  97336-3 0  9997
2 64837  51.9015 315.1722 0000910  94.9685 265.1381 14.79973295 35834
KUIPER-00093            
1 64838U 25151Y   26063.12923925  .00006987  00000+0  94287-3 0  9995
2 64838  51.9013 317.6654 0000919  92.3229 267.7838 14.80010428 34587
KUIPER-00094            
1 64839U 25151Z   26062.99858415  .00010937  00000+0  79641-3 0  9998
2 64839  51.8884 288.5171 0005317 266.5231  93.5134 15.04218027 34988
KUIPER-00081            
1 65132U 25171A   26063.52205266 -.00008977  00000+0 -11503-2 0  9992
2 65132  51.9028 170.9250 0000211 349.9087  10.1871 14.79927811 32273
KUIPER-00088            
1 65133U 25171B   26063.58335648 -.00018844  00000+0 -26623-2 0  9990
2 65133  51.8993 188.0607 0000413  30.3715  88.6668 14.76426821  5381
KUIPER-00095            
1 65134U 25171C   26063.58335648  .00031405  00000+0  39742-2 0  9993
2 65134  51.8968 168.3651 0002523 121.3237 121.4902 14.81540090  5386
