[{"OBJECT_NAME":"KUIPER-00080","OBJECT_ID":"2025-151M","EPOCH":"2026-03-04T02:54:39.212352","MEAN_MOTION":14.79937835,"ECCENTRICITY":7.274e-5,"INCLINATION":51.9016,"RA_OF_ASC_NODE":325.1941,"ARG_OF_PERICENTER":89.3802,"MEAN_ANOMALY":270.7243,"EPHEMERIS_TYPE":0,"CLASSIFICATION_TYPE":"U","NORAD_CAT_ID":64827,"ELEMENT_SET_NO":999,"REV_AT_EPOCH":3448,"BSTAR":0.0002937358,"MEAN_MOTION_DOT":2.019e-5,"MEAN_MOTION_DDOT":0},{"OBJECT_NAME":"KUIPER-00082","OBJECT_ID":"2025-151N","EPOCH":"2026-03-04T02:25:23.440800","MEAN_MOTION":14.79947532,"ECCENTRICITY":7.246e-5,"INCLINATION":51.9017,"RA_OF_ASC_NODE":312.8148,"ARG_OF_PERICENTER":90.5223,"MEAN_ANOMALY":269.5823,"EPHEMERIS_TYPE":0,"CLASSIFICATION_TYPE":"U","NORAD_CAT_ID":64828,"ELEMENT_SET_NO":999,"REV_AT_EPOCH":3465,"BSTAR":0.0009346797,"MEAN_MOTION_DOT":6.914e-5,"MEAN_MOTION_DDOT":0},{"OBJECT_NAME":"KUIPER-00083","OBJECT_ID":"2025-151P","EPOCH":"2026-03-04T00:36:33.468768","MEAN_MOTION":14.7995191,"ECCENTRICITY":6.214e-5,"INCLINATION":51.9022,"RA_OF_ASC_NODE":320.6398,"ARG_OF_PERICENTER":95.5998,"MEAN_ANOMALY":264.5036,"EPHEMERIS_TYPE":0,"CLASSIFICATION_TYPE":"U","NORAD_CAT_ID":64829,"ELEMENT_SET_NO":999,"REV_AT_EPOCH":3572,"BSTAR":0.00094361563,"MEAN_MOTION_DOT":6.983e-5,"MEAN_MOTION_DDOT":0},{"OBJECT_NAME":"KUIPER-00084","OBJECT_ID":"2025-151Q","EPOCH":"2026-03-04T03:35:29.148288","MEAN_MOTION":14.79907168,"ECCENTRICITY":8.017e-5,"INCLINATION":51.9035,"RA_OF_ASC_NODE":330.0723,"ARG_OF_PERICENTER":222.7778,"MEAN_ANOMALY":137.3122,"EPHEMERIS_TYPE":0,"CLASSIFICATION_TYPE":"U","NORAD_CAT_ID":64830,"ELEMENT_SET_NO":999,"REV_AT_EPOCH":3441,"BSTAR":2.9512773e-5,"MEAN_MOTION_DOT":4.0e-8,"MEAN_MOTION_DDOT":0},{"OBJECT_NAME":"KUIPER-00085","OBJECT_ID":"2025-151R","EPOCH":"2026-03-04T01:36:50.604768","MEAN_MOTION":14.79938387,"ECCENTRICITY":8.223e-5,"INCLINATION":51.9022,"RA_OF_ASC_NODE":312.9899,"ARG_OF_PERICENTER":114.7435,"MEAN_ANOMALY":245.3613,"EPHEMERIS_TYPE":0,"CLASSIFICATION_TYPE":"U","NORAD_CAT_ID":64831,"ELEMENT_SET_NO":999,"REV_AT_EPOCH":3464,"BSTAR":0.00053072373,"MEAN_MOTION_DOT":3.828e-5,"MEAN_MOTION_DDOT":0},{"OBJECT_NAME":"KUIPER-00086","OBJECT_ID":"2025-151S","EPOCH":"2026-03-03T17:15:05.398272","MEAN_MOTION":14.79931736,"ECCENTRICITY":7.025e-5,"INCLINATION":51.9044,"RA_OF_ASC_NODE":324.5008,"ARG_OF_PERICENTER":71.6219,"MEAN_ANOMALY":288.482,"EPHEMERIS_TYPE":0,"CLASSIFICATION_TYPE":"U","NORAD_CAT_ID":64832,"ELEMENT_SET_NO":999,"REV_AT_EPOCH":3445,"BSTAR":-0.00021060918,"MEAN_MOTION_DOT":-1.826e-5,"MEAN_MOTION_DDOT":0},{"OBJECT_NAME":"KUIPER-00087","OBJECT_ID":"2025-151T","EPOCH":"2026-03-04T14:00:01.999872","MEAN_MOTION":14.80381627,"ECCENTRICITY":8.39e-5,"INCLINATION":51.8992,"RA_OF_ASC_NODE":303.1623,"ARG_OF_PERICENTER":79.1737,"MEAN_ANOMALY":108.4062,"EPHEMERIS_TYPE":0,"CLASSIFICATION_TYPE":"U","NORAD_CAT_ID":64833,"ELEMENT_SET_NO":999,"REV_AT_EPOCH":539,"BSTAR":-0.027621974,"MEAN_MOTION_DOT":-0.00206651,"MEAN_MOTION_DDOT":0},{"OBJECT_NAME":"KUIPER-00089","OBJECT_ID":"2025-151U","EPOCH":"2026-03-04T01:38:36.040416","MEAN_MOTION":14.79795846,"ECCENTRICITY":7.122e-5,"INCLINATION":51.9004,"RA_OF_ASC_NODE":310.4336,"ARG_OF_PERICENTER":86.3822,"MEAN_ANOMALY":273.7222,"EPHEMERIS_TYPE":0,"CLASSIFICATION_TYPE":"U","NORAD_CAT_ID":64834,"ELEMENT_SET_NO":999,"REV_AT_EPOCH":3468,"BSTAR":0.00085224825,"MEAN_MOTION_DOT":6.261e-5,"MEAN_MOTION_DDOT":0},{"OBJECT_NAME":"KUIPER-00090","OBJECT_ID":"2025-151V","EPOCH":"2026-03-04T01:52:22.563552","MEAN_MOTION":14.79937751,"ECCENTRICITY":9.074e-5,"INCLINATION":51.9016,"RA_OF_ASC_NODE":302.9416,"ARG_OF_PERICENTER":99.6331,"MEAN_ANOMALY":260.4734,"EPHEMERIS_TYPE":0,"CLASSIFICATION_TYPE":"U","NORAD_CAT_ID":64835,"ELEMENT_SET_NO":999,"REV_AT_EPOCH":3478,"BSTAR":0.00071211987,"MEAN_MOTION_DOT":5.212e-5,"MEAN_MOTION_DDOT":0},{"OBJECT_NAME":"KUIPER-00091","OBJECT_ID":"2025-151W","EPOCH":"2026-03-04T11:28:51.687264","MEAN_MOTION":14.79819329,"ECCENTRICITY":0.00010198,"INCLINATION":51.9011,"RA_OF_ASC_NODE":306.1497,"ARG_OF_PERICENTER":95.586,"MEAN_ANOMALY":264.5218,"EPHEMERIS_TYPE":0,"CLASSIFICATION_TYPE":"U","NORAD_CAT_ID":64836,"ELEMENT_SET_NO":999,"REV_AT_EPOCH":3477,"BSTAR":0.00092282796,"MEAN_MOTION_DOT":6.802e-5,"MEAN_MOTION_DDOT":0},{"OBJECT_NAME":"KUIPER-00092","OBJECT_ID":"2025-151X","EPOCH":"2026-03-04T03:10:08.897952","MEAN_MOTION":14.79973295,"ECCENTRICITY":9.101e-5,"INCLINATION":51.9015,"RA_OF_ASC_NODE":315.1722,"ARG_OF_PERICENTER":94.9685,"MEAN_ANOMALY":265.1381,"EPHEMERIS_TYPE":0,"CLASSIFICATION_TYPE":"U","NORAD_CAT_ID":64837,"ELEMENT_SET_NO":999,"REV_AT_EPOCH":3583,"BSTAR":0.00097336153,"MEAN_MOTION_DOT":7.214e-5,"MEAN_MOTION_DDOT":0},{"OBJECT_NAME":"KUIPER-00093","OBJECT_ID":"2025-151Y","EPOCH":"2026-03-04T03:06:06.271200","MEAN_MOTION":14.80010428,"ECCENTRICITY":9.197e-5,"INCLINATION":51.9013,"RA_OF_ASC_NODE":317.6654,"ARG_OF_PERICENTER":92.3229,"MEAN_ANOMALY":267.7838,"EPHEMERIS_TYPE":0,"CLASSIFICATION_TYPE":"U","NORAD_CAT_ID":64838,"ELEMENT_SET_NO":999,"REV_AT_EPOCH":3458,"BSTAR":0.00094286907,"MEAN_MOTION_DOT":6.987e-5,"MEAN_MOTION_DDOT":0},{"OBJECT_NAME":"KUIPER-00094","OBJECT_ID":"2025-151Z","EPOCH":"2026-03-03T23:57:57.670560","MEAN_MOTION":15.04218027,"ECCENTRICITY":0.00053171,"INCLINATION":51.8884,"RA_OF_ASC_NODE":288.5171,"ARG_OF_PERICENTER":266.5231,"MEAN_ANOMALY":93.5134,"EPHEMERIS_TYPE":0,"CLASSIFICATION_TYPE":"U","NORAD_CAT_ID":64839,"ELEMENT_SET_NO":999,"REV_AT_EPOCH":3498,"BSTAR":0.00079640595,"MEAN_MOTION_DOT":0.00010937,"MEAN_MOTION_DDOT":0},{"OBJECT_NAME":"KUIPER-00081","OBJECT_ID":"2025-171A","EPOCH":"2026-03-04T12:31:45.349824","MEAN_MOTION":14.79927811,"ECCENTRICITY":2.114e-5,"INCLINATION":51.9028,"RA_OF_ASC_NODE":170.925,"ARG_OF_PERICENTER":349.9087,"MEAN_ANOMALY":10.1871,"EPHEMERIS_TYPE":0,"CLASSIFICATION_TYPE":"U","NORAD_CAT_ID":65132,"ELEMENT_SET_NO":999,"REV_AT_EPOCH":3227,"BSTAR":-0.0011503356,"MEAN_MOTION_DOT":-8.977e-5,"MEAN_MOTION_DDOT":0},{"OBJECT_NAME":"KUIPER-00088","OBJECT_ID":"2025-171B","EPOCH":"2026-03-04T14:00:01.999872","MEAN_MOTION":14.76426821,"ECCENTRICITY":4.134e-5,"INCLINATION":51.8993,"RA_OF_ASC_NODE":188.0607,"ARG_OF_PERICENTER":30.3715,"MEAN_ANOMALY":88.6668,"EPHEMERIS_TYPE":0,"CLASSIFICATION_TYPE":"U","NORAD_CAT_ID":65133,"ELEMENT_SET_NO":999,"REV_AT_EPOCH":538,"BSTAR":-0.0026622723,"MEAN_MOTION_DOT":-0.00018844,"MEAN_MOTION_DDOT":0},{"OBJECT_NAME":"KUIPER-00095","OBJECT_ID":"2025-171C","EPOCH":"2026-03-04T14:00:01.999872","MEAN_MOTION":14.8154009,"ECCENTRICITY":0.00025232,"INCLINATION":51.8968,"RA_OF_ASC_NODE":168.3651,"ARG_OF_PERICENTER":121.3237,"MEAN_ANOMALY":121.4902,"EPHEMERIS_TYPE":0,"CLASSIFICATION_TYPE":"U","NORAD_CAT_ID":65134,"ELEMENT_SET_NO":999,"REV_AT_EPOCH":538,"BSTAR":0.003974159,"MEAN_MOTION_DOT":0.00031405,"MEAN_MOTION_DDOT":0}]
